ION SCV-004             
1 50993U 22002K   26068.68892644  .00006538  00000+0  23198-3 0  9998
2 50993  97.2961 128.2294 0007216   1.6783 358.4480 15.29369331230088
STARLINK-35366          
1 66512U 25263AD  26068.13635428  .00028456  00000+0  10386-2 0  9996
2 66512  43.0014 353.8669 0007220 234.1942 125.8239 15.27591667 18817
